ONEWEB-0144             
1 47290U 20100AJ  25196.62716735 -.00000179  00000+0 -53307-3 0  9994
2 47290  87.8856  57.5635 0001763  73.1719 286.9602 13.12442805220425
ONEWEB-0145             
1 47291U 20100AK  25196.59797831  .00000327  00000+0  87458-3 0  9994
2 47291  87.8859  57.5953 0001813  79.4883 280.6450 13.12443739220619
ONEWEB-0146             
1 47292U 20100AL  25196.59472902  .00000319  00000+0  85132-3 0  9992
2 47292  87.8861  57.5828 0001899  93.2758 266.8588 13.12444606220525
ONEWEB-0147             
1 47293U 20100AM  25196.56066012 -.00000274  00000+0 -79804-3 0  9992
2 47293  87.8859  57.5688 0002028  77.9108 282.2247 13.12440000220416
ONEWEB-0115             
1 48042U 21025A   25196.54691925 -.00000148  00000+0 -44120-3 0  9990
2 48042  87.8948  27.0977 0001812  90.3787 269.7550 13.13470663209416
ONEWEB-0152             
1 48043U 21025B   25196.56045691 -.00000270  00000+0 -77455-3 0  9999
2 48043  87.8953  27.1090 0001898  91.5324 268.6023 13.13470975209367
ONEWEB-0153             
1 48044U 21025C   25196.61463619 -.00000003  00000+0 -42514-4 0  9993
2 48044  87.8958  27.0964 0001758  87.8979 272.2351 13.13470083209366
ONEWEB-0154             
1 48045U 21025D   25196.53506892  .00000079  00000+0  18181-3 0  9999
2 48045  87.8954  27.1113 0001868  88.3697 271.7646 13.13470675209318
